NORAD_CAT_ID,OBJECT_NAME,OBJECT_TYPE,EPOCH,MEAN_MOTION,ECCENTRICITY,INCLINATION,RA_OF_ASC_NODE,ARG_OF_PERICENTER,MEAN_ANOMALY,BSTAR,MEAN_MOTION_DOT,MEAN_MOTION_DDOT,TLE_LINE0,TLE_LINE1,TLE_LINE2,SEMIMAJOR_AXIS,PERIOD,APOGEE,PERIGEE,DECAYED
53559.0,STARLINK-4508,PAYLOAD,2023-12-06 21:27:05,15.08846304,0.0001277,53.2151,162.2836,100.4294,259.6842,7.8835e-05,9.67e-06,0.0,0 STARLINK-4508,1 53559U 22101AJ  23340.89381745  .00000967  00000-0  78835-4 0  9997,2 53559  53.2151 162.2836 0001277 100.4294 259.6842 15.08846304 71947,6917.861,95.437,540.61,538.843,0.0
53559.0,STARLINK-4508,PAYLOAD,2023-12-07 11:45:34,15.08844367,0.0001242,53.2151,159.6073,98.5597,261.5536,6.9406e-05,8.17e-06,0.0,0 STARLINK-4508,1 53559U 22101AJ  23341.48997896  .00000817  00000-0  69406-4 0  9991,2 53559  53.2151 159.6073 0001242  98.5597 261.5536 15.08844367 72035,6917.867,95.437,540.591,538.873,0.0
53559.0,STARLINK-4508,PAYLOAD,2023-12-08 11:36:21,15.08844268,0.0001264,53.2154,155.1457,93.2625,266.8512,7.4987e-05,9.06e-06,0.0,0 STARLINK-4508,1 53559U 22101AJ  23342.48357909  .00000906  00000-0  74987-4 0  9996,2 53559  53.2154 155.1457 0001264  93.2625 266.8512 15.08844268 72181,6917.867,95.437,540.607,538.858,0.0
53559.0,STARLINK-4508,PAYLOAD,2023-12-08 14:47:07,15.08844712,0.0001209,53.2153,154.5518,95.5891,264.5239,7.8708e-05,9.65e-06,0.0,0 STARLINK-4508,1 53559U 22101AJ  23342.61605840  .00000965  00000-0  78708-4 0  9991,2 53559  53.2153 154.5518 0001209  95.5891 264.5239 15.08844712 72208,6917.866,95.437,540.567,538.895,0.0
53559.0,STARLINK-4508,PAYLOAD,2023-12-09 11:27:08,15.08842864,0.0001167,53.2152,150.6866,92.277,267.8356,5.5061e-05,5.89e-06,0.0,0 STARLINK-4508,1 53559U 22101AJ  23343.47717912  .00000589  00000-0  55061-4 0  9999,2 53559  53.2152 150.6866 0001167  92.2770 267.8356 15.08842864 72339,6917.872,95.437,540.544,538.929,0.0
53559.0,STARLINK-4508,PAYLOAD,2023-12-10 14:28:41,15.08838531,0.0001551,53.2148,145.6284,114.4571,245.6583,3.0219e-05,1.93e-06,0.0,0 STARLINK-4508,1 53559U 22101AJ  23344.60325806  .00000193  00000-0  30219-4 0  9991,2 53559  53.2148 145.6284 0001551 114.4571 245.6583 15.08838531 72506,6917.885,95.438,540.823,538.677,0.0
53559.0,STARLINK-4508,PAYLOAD,2023-12-10 17:39:27,15.0883876,0.0001281,53.2152,145.0361,92.3391,267.7747,2.8764e-05,1.7e-06,0.0,0 STARLINK-4508,1 53559U 22101AJ  23344.73573887  .00000170  00000-0  28764-4 0  9996,2 53559  53.2152 145.0361 0001281  92.3391 267.7747 15.08838760 72528,6917.884,95.438,540.635,538.863,0.0
53559.0,STARLINK-4508,PAYLOAD,2023-12-11 14:19:28,15.08843454,0.0001295,53.216,141.1706,98.4378,261.6761,7.9382e-05,9.76e-06,0.0,0 STARLINK-4508,1 53559U 22101AJ  23345.59685349  .00000976  00000-0  79382-4 0  9994,2 53559  53.2160 141.1706 0001295  98.4378 261.6761 15.08843454 72653,6917.87,95.437,540.631,538.839,0.0
53559.0,STARLINK-4508,PAYLOAD,2023-12-11 15:54:50,15.08856874,0.0001387,53.2162,140.8742,103.7853,256.3294,0.00019538,2.824e-05,0.0,0 STARLINK-4508,1 53559U 22101AJ  23345.66308248  .00002824  00000-0  19538-3 0  9992,2 53559  53.2162 140.8742 0001387 103.7853 256.3294 15.08856874 72664,6917.829,95.436,540.653,538.734,0.0
53559.0,STARLINK-4508,PAYLOAD,2023-12-12 14:10:15,15.08838787,0.0001338,53.2161,136.7113,104.9366,255.1774,6.7136e-05,7.81e-06,0.0,0 STARLINK-4508,1 53559U 22101AJ  23346.59045611  .00000781  00000-0  67136-4 0  9995,2 53559  53.2161 136.7113 0001338 104.9366 255.1774 15.08838787 72806,6917.884,95.438,540.675,538.823,0.0
53559.0,STARLINK-4508,PAYLOAD,2023-12-12 17:21:02,15.08834723,0.0001151,53.2158,136.1158,85.396,274.7163,3.2779e-05,2.34e-06,0.0,0 STARLINK-4508,1 53559U 22101AJ  23346.72294051  .00000234  00000-0  32779-4 0  9992,2 53559  53.2158 136.1158 0001151  85.3960 274.7163 15.08834723 72827,6917.897,95.438,540.558,538.965,0.0
53559.0,STARLINK-4508,PAYLOAD,2023-12-13 14:01:02,15.08852016,0.0001118,53.2158,132.2495,65.6723,294.4386,-0.0001726,-3.035e-05,0.0,0 STARLINK-4508,1 53559U 22101AJ  23347.58405867 -.00003035  00000-0 -17260-3 0  9997,2 53559  53.2158 132.2495 0001118  65.6723 294.4386 15.08852016 72954,6917.844,95.437,540.482,538.935,0.0
53559.0,STARLINK-4508,PAYLOAD,2023-12-13 17:11:49,15.08806395,0.0001453,53.2158,131.6549,86.9611,273.1547,0.00052656,8.095e-05,0.0,0 STARLINK-4508,1 53559U 22101AJ  23347.71654410  .00008095  00000-0  52656-3 0  9999,2 53559  53.2158 131.6549 0001453  86.9611 273.1547 15.08806395 72975,6917.983,95.44,540.853,538.843,0.0
53559.0,STARLINK-4508,PAYLOAD,2023-12-14 13:51:49,15.08835168,0.0001276,53.2164,127.7885,70.0413,290.0717,9.3943e-05,1.207e-05,0.0,0 STARLINK-4508,1 53559U 22101AJ  23348.57766113  .00001207  00000-0  93943-4 0  9991,2 53559  53.2164 127.7885 0001276  70.0413 290.0717 15.08835168 73101,6917.895,95.438,540.643,538.877,0.0
53559.0,STARLINK-4508,PAYLOAD,2023-12-14 17:02:36,15.08838566,0.0001321,53.2166,127.1944,72.0659,288.0477,0.00012529,1.707e-05,0.0,0 STARLINK-4508,1 53559U 22101AJ  23348.71013894  .00001707  00000-0  12529-3 0  9993,2 53559  53.2166 127.1944 0001321  72.0659 288.0477 15.08838566 73125,6917.885,95.438,540.664,538.836,0.0
53559.0,STARLINK-4508,PAYLOAD,2023-12-14 21:48:45,15.08843941,0.0001284,53.2166,126.3031,72.8172,287.2961,0.0001612,2.279e-05,0.0,0 STARLINK-4508,1 53559U 22101AJ  23348.90885454  .00002279  00000-0  16120-3 0  9999,2 53559  53.2166 126.3031 0001284  72.8172 287.2961 15.08843941 73154,6917.868,95.437,540.622,538.845,0.0
53559.0,STARLINK-4508,PAYLOAD,2023-12-15 13:42:38,15.08826879,0.0001716,53.2177,123.3232,58.3553,301.7606,-4.2116e-05,-9.58e-06,0.0,0 STARLINK-4508,1 53559U 22101AJ  23349.57127672 -.00000958  00000-0 -42116-4 0  9993,2 53559  53.2177 123.3232 0001716  58.3553 301.7606 15.08826879 73258,6917.92,95.438,540.973,538.598,0.0
53559.0,STARLINK-4508,PAYLOAD,2023-12-15 16:53:24,15.08830823,0.0001623,53.2168,122.732,66.1489,293.9673,-8.6377e-06,-4.25e-06,0.0,0 STARLINK-4508,1 53559U 22101AJ  23349.70375419 -.00000425  00000-0 -86377-5 0  9999,2 53559  53.2168 122.7320 0001623  66.1489 293.9673 15.08830823 73273,6917.908,95.438,540.896,538.651,0.0
53559.0,STARLINK-4508,PAYLOAD,2023-12-16 13:33:23,15.08849267,0.0001372,53.2167,118.8656,76.1065,284.008,0.00011968,1.618e-05,0.0,0 STARLINK-4508,1 53559U 22101AJ  23350.56486095  .00001618  00000-0  11968-3 0  9993,2 53559  53.2167 118.8656 0001372  76.1065 284.0080 15.08849267 73402,6917.852,95.437,540.666,538.768,0.0
53559.0,STARLINK-4508,PAYLOAD,2023-12-16 15:08:47,15.08848302,0.0001428,53.2157,118.5694,74.0486,286.0663,0.00023426,3.443e-05,0.0,0 STARLINK-4508,1 53559U 22101AJ  23350.63110457  .00003443  00000-0  23426-3 0  9997,2 53559  53.2157 118.5694 0001428  74.0486 286.0663 15.08848302 73415,6917.855,95.437,540.708,538.732,0.0
53559.0,STARLINK-4508,PAYLOAD,2023-12-17 11:48:48,15.08841535,0.0001556,53.2159,114.7078,102.6398,257.4768,0.00020553,2.985e-05,0.0,0 STARLINK-4508,1 53559U 22101AJ  23351.49222702  .00002985  00000-0  20553-3 0  9997,2 53559  53.2159 114.7078 0001556 102.6398 257.4768 15.08841535 73546,6917.876,95.437,540.817,538.664,0.0
53559.0,STARLINK-4508,PAYLOAD,2023-12-17 13:24:11,15.08842194,0.0001413,53.2157,114.4061,102.1457,257.9693,0.00018416,2.644e-05,0.0,0 STARLINK-4508,1 53559U 22101AJ  23351.55846773  .00002644  00000-0  18416-3 0  9991,2 53559  53.2157 114.4061 0001413 102.1457 257.9693 15.08842194 73551,6917.874,95.437,540.716,538.761,0.0
53559.0,STARLINK-4508,PAYLOAD,2023-12-17 14:59:34,15.08842535,0.0001402,53.2154,114.1059,77.3816,282.7333,0.00019405,2.802e-05,0.0,0 STARLINK-4508,1 53559U 22101AJ  23351.62470812  .00002802  00000-0  19405-3 0  9991,2 53559  53.2154 114.1059 0001402  77.3816 282.7333 15.08842535 73569,6917.873,95.437,540.708,538.768,0.0
53559.0,STARLINK-4508,PAYLOAD,2023-12-18 13:14:57,15.08854206,0.0001378,53.2163,109.9474,102.7975,257.3171,8.2085e-05,1.019e-05,0.0,0 STARLINK-4508,1 53559U 22101AJ  23352.55205817  .00001019  00000-0  82085-4 0  9999,2 53559  53.2163 109.9474 0001378 102.7975 257.3171 15.08854206 73705,6917.837,95.437,540.655,538.749,0.0
53559.0,STARLINK-4508,PAYLOAD,2023-12-19 11:30:21,15.08843139,0.0001453,53.216,105.7823,111.5647,248.55,1.6597e-05,-2.4e-07,0.0,0 STARLINK-4508,1 53559U 22101AJ  23353.47942000 -.00000024  00000-0  16597-4 0  9994,2 53559  53.2160 105.7823 0001453 111.5647 248.5500 15.08843139 73848,6917.871,95.437,540.741,538.731,0.0
53559.0,STARLINK-4508,PAYLOAD,2023-12-19 14:41:08,15.08843097,0.0001358,53.2159,105.1883,105.5059,254.6083,4.4688e-06,-2.17e-06,0.0,0 STARLINK-4508,1 53559U 22101AJ  23353.61189966 -.00000217  00000-0  44688-5 0  9991,2 53559  53.2159 105.1883 0001358 105.5059 254.6083 15.08843097 73869,6917.871,95.437,540.675,538.796,0.0
53559.0,STARLINK-4508,PAYLOAD,2023-12-20 11:21:09,15.08828707,0.000123,53.2158,101.3208,93.5568,266.5564,-8.3306e-05,-1.613e-05,0.0,0 STARLINK-4508,1 53559U 22101AJ  23354.47303020 -.00001613  00000-0 -83306-4 0  9996,2 53559  53.2158 101.3208 0001230  93.5568 266.5564 15.08828707 73998,6917.915,95.438,540.631,538.929,0.0
53559.0,STARLINK-4508,PAYLOAD,2023-12-20 12:56:33,15.0883079,0.0001203,53.2166,101.0239,95.9917,264.1212,-2.7176e-06,-3.31e-06,0.0,0 STARLINK-4508,1 53559U 22101AJ  23354.53927374 -.00000331  00000-0 -27176-5 0  9997,2 53559  53.2166 101.0239 0001203  95.9917 264.1212 15.08830790 74004,6917.909,95.438,540.606,538.941,0.0
53559.0,STARLINK-4508,PAYLOAD,2023-12-21 14:22:43,15.08841383,0.000123,53.2158,96.2672,71.6925,288.4201,0.00019217,2.772e-05,0.0,0 STARLINK-4508,1 53559U 22101AJ  23355.59911137  .00002772  00000-0  19217-3 0  9998,2 53559  53.2158  96.2672 0001230  71.6925 288.4201 15.08841383 74165,6917.876,95.437,540.592,538.89,0.0
53559.0,STARLINK-4508,PAYLOAD,2023-12-22 11:02:44,15.08839667,0.0001327,53.2155,92.4046,62.4261,297.6866,0.00020467,2.971e-05,0.0,0 STARLINK-4508,1 53559U 22101AJ  23356.46023604  .00002971  00000-0  20467-3 0  9998,2 53559  53.2155  92.4046 0001327  62.4261 297.6866 15.08839667 74298,6917.881,95.438,540.664,538.828,0.0
